[{"OBJECT_NAME":"FLOCK 4H-16","OBJECT_ID":"2025-276BF","EPOCH":"2026-03-09T18:22:00.923808","MEAN_MOTION":15.18505927,"ECCENTRICITY":0.00041583,"INCLINATION":97.4302,"RA_OF_ASC_NODE":144.0218,"ARG_OF_PERICENTER":10.1736,"MEAN_ANOMALY":349.9581,"EPHEMERIS_TYPE":0,"CLASSIFICATION_TYPE":"U","NORAD_CAT_ID":66719,"ELEMENT_SET_NO":999,"REV_AT_EPOCH":1532,"BSTAR":0.00041273119,"MEAN_MOTION_DOT":8.452e-5,"MEAN_MOTION_DDOT":0},{"OBJECT_NAME":"TWILIGHT-1 OBJECT AM","OBJECT_ID":"2026-004AM","EPOCH":"2026-03-09T21:33:48.157056","MEAN_MOTION":15.18322699,"ECCENTRICITY":0.0006202,"INCLINATION":97.4587,"RA_OF_ASC_NODE":69.4247,"ARG_OF_PERICENTER":348.8142,"MEAN_ANOMALY":11.2953,"EPHEMERIS_TYPE":0,"CLASSIFICATION_TYPE":"U","NORAD_CAT_ID":67398,"ELEMENT_SET_NO":999,"REV_AT_EPOCH":869,"BSTAR":0.00056644606,"MEAN_MOTION_DOT":0.00011571,"MEAN_MOTION_DDOT":0}]
